start=new Date('2022-05-08T00:00:00.000Z').valueOf();
sats=[{"ECCENTRICITY":"0.00021480","MEAN_ANOMALY":"312.2973","COUNTRY_CODE":"US","MEAN_MOTION_DOT":"0.00001404","OBJECT_ID":"2021-038AH","FILE":"3433971","CENTER_NAME":"EARTH","EPOCH":"2022-05-07T11:24:42.949440","TIME_SYSTEM":"UTC","PERIOD":"95.592","OBJECT_TYPE":"PAYLOAD","ARG_OF_PERICENTER":"47.8198","RCS_SIZE":"LARGE","REV_AT_EPOCH":"5704","SEMIMAJOR_AXIS":"6925.337","TLE_LINE1":"1 48384U 21038AH  22127.47549710  .00001404  00000-0  11311-3 0  9991","BSTAR":"0.00011311000000","EPHEMERIS_TYPE":"0","ELEMENT_SET_NO":"999","NORAD_CAT_ID":"48384","GP_ID":"202925441","REF_FRAME":"TEME","CLASSIFICATION_TYPE":"U","PERIAPSIS":"545.714","APOAPSIS":"548.690","LAUNCH_DATE":"2021-05-04","MEAN_MOTION":"15.06403779","SITE":"AFETR","MEAN_ELEMENT_THEORY":"SGP4","MEAN_MOTION_DDOT":"0.0000000000000","TLE_LINE2":"2 48384  53.0543 166.4076 0002148  47.8198 312.2973 15.06403779 57046","OBJECT_NAME":"STARLINK-2601","DECAY_DATE":null,"RA_OF_ASC_NODE":"166.4076","INCLINATION":"53.0543"},{"RCS_SIZE":"LARGE","REV_AT_EPOCH":"5704","OBJECT_TYPE":"PAYLOAD","ARG_OF_PERICENTER":"43.2205","SEMIMAJOR_AXIS":"6925.358","TLE_LINE1":"1 48385U 21038AJ  22127.47181766 -.00000579  00000-0 -19996-4 0  9997","BSTAR":"-0.00001999600000","EPHEMERIS_TYPE":"0","OBJECT_ID":"2021-038AJ","FILE":"3433971","CENTER_NAME":"EARTH","MEAN_ANOMALY":"316.8930","ECCENTRICITY":"0.00018690","COUNTRY_CODE":"US","MEAN_MOTION_DOT":"-0.00000579","PERIOD":"95.592","EPOCH":"2022-05-07T11:19:25.045824","TIME_SYSTEM":"UTC","MEAN_ELEMENT_THEORY":"SGP4","MEAN_MOTION_DDOT":"0.0000000000000","TLE_LINE2":"2 48385  53.0548 166.4153 0001869  43.2205 316.8930 15.06396828 57045","OBJECT_NAME":"STARLINK-2598","DECAY_DATE":null,"SITE":"AFETR","RA_OF_ASC_NODE":"166.4153","INCLINATION":"53.0548","GP_ID":"202926193","CLASSIFICATION_TYPE":"U","REF_FRAME":"TEME","ELEMENT_SET_NO":"999","NORAD_CAT_ID":"48385","APOAPSIS":"548.518","LAUNCH_DATE":"2021-05-04","MEAN_MOTION":"15.06396828","PERIAPSIS":"545.929"},{"EPHEMERIS_TYPE":"0","BSTAR":"-0.00018313000000","TLE_LINE1":"1 48386U 21038AK  22127.52478504 -.00003008  00000-0 -18313-3 0  9994","SEMIMAJOR_AXIS":"6925.358","ARG_OF_PERICENTER":"47.0290","OBJECT_TYPE":"PAYLOAD","REV_AT_EPOCH":"5589","RCS_SIZE":"LARGE","TIME_SYSTEM":"UTC","EPOCH":"2022-05-07T12:35:41.427456","PERIOD":"95.592","MEAN_MOTION_DOT":"-0.00003008","COUNTRY_CODE":"US","MEAN_ANOMALY":"313.0853","ECCENTRICITY":"0.00018430","CENTER_NAME":"EARTH","OBJECT_ID":"2021-038AK","FILE":"3433971","INCLINATION":"53.0544","RA_OF_ASC_NODE":"161.1902","SITE":"AFETR","DECAY_DATE":null,"OBJECT_NAME":"STARLINK-2606","TLE_LINE2":"2 48386  53.0544 161.1902 0001843  47.0290 313.0853 15.06396897 55894","MEAN_ELEMENT_THEORY":"SGP4","MEAN_MOTION_DDOT":"0.0000000000000","PERIAPSIS":"545.947","MEAN_MOTION":"15.06396897","LAUNCH_DATE":"2021-05-04","APOAPSIS":"548.499","NORAD_CAT_ID":"48386","ELEMENT_SET_NO":"999","CLASSIFICATION_TYPE":"U","REF_FRAME":"TEME","GP_ID":"202925942"},{"LAUNCH_DATE":"2021-05-04","MEAN_MOTION":"15.06414477","APOAPSIS":"548.587","PERIAPSIS":"545.752","CLASSIFICATION_TYPE":"U","REF_FRAME":"TEME","GP_ID":"202896728","ELEMENT_SET_NO":"999","NORAD_CAT_ID":"48387","INCLINATION":"53.0534","RA_OF_ASC_NODE":"161.3369","OBJECT_NAME":"STARLINK-2600","DECAY_DATE":null,"MEAN_ELEMENT_THEORY":"SGP4","MEAN_MOTION_DDOT":"0.0000000000000","TLE_LINE2":"2 48387  53.0534 161.3369 0002047  41.2909 318.8235 15.06414477 56481","SITE":"AFETR","PERIOD":"95.591","TIME_SYSTEM":"UTC","EPOCH":"2022-05-07T11:47:55.025376","OBJECT_ID":"2021-038AL","FILE":"3433692","CENTER_NAME":"EARTH","MEAN_MOTION_DOT":"0.00002119","ECCENTRICITY":"0.00020470","MEAN_ANOMALY":"318.8235","COUNTRY_CODE":"US","BSTAR":"0.00016105000000","EPHEMERIS_TYPE":"0","SEMIMAJOR_AXIS":"6925.304","TLE_LINE1":"1 48387U 21038AL  22127.49160909  .00002119  00000-0  16105-3 0  9995","RCS_SIZE":"LARGE","REV_AT_EPOCH":"5648","ARG_OF_PERICENTER":"41.2909","OBJECT_TYPE":"PAYLOAD"},{"PERIOD":"95.592","TIME_SYSTEM":"UTC","EPOCH":"2022-05-07T11:38:39.215040","CENTER_NAME":"EARTH","FILE":"3433971","OBJECT_ID":"2021-038AM","COUNTRY_CODE":"US","ECCENTRICITY":"0.00017100","MEAN_ANOMALY":"312.6583","MEAN_MOTION_DOT":"0.00001149","TLE_LINE1":"1 48388U 21038AM  22127.48517610  .00001149  00000-0  95993-4 0  9995","SEMIMAJOR_AXIS":"6925.336","EPHEMERIS_TYPE":"0","BSTAR":"0.00009599300000","REV_AT_EPOCH":"5589","RCS_SIZE":"LARGE","OBJECT_TYPE":"PAYLOAD","ARG_OF_PERICENTER":"47.4550","APOAPSIS":"548.386","MEAN_MOTION":"15.06403970","LAUNCH_DATE":"2021-05-04","PERIAPSIS":"546.017","GP_ID":"202924943","CLASSIFICATION_TYPE":"U","REF_FRAME":"TEME","NORAD_CAT_ID":"48388","ELEMENT_SET_NO":"999","RA_OF_ASC_NODE":"161.3615","INCLINATION":"53.0551","TLE_LINE2":"2 48388  53.0551 161.3615 0001710  47.4550 312.6583 15.06403970 55899","MEAN_ELEMENT_THEORY":"SGP4","MEAN_MOTION_DDOT":"0.0000000000000","DECAY_DATE":null,"OBJECT_NAME":"STARLINK-2594","SITE":"AFETR"},{"PERIAPSIS":"545.819","LAUNCH_DATE":"2021-05-04","MEAN_MOTION":"15.06396588","APOAPSIS":"548.629","ELEMENT_SET_NO":"999","NORAD_CAT_ID":"48389","CLASSIFICATION_TYPE":"U","REF_FRAME":"TEME","GP_ID":"202936534","INCLINATION":"53.0546","RA_OF_ASC_NODE":"154.9326","SITE":"AFETR","OBJECT_NAME":"STARLINK-1904","DECAY_DATE":null,"MEAN_MOTION_DDOT":"0.0000000000000","MEAN_ELEMENT_THEORY":"SGP4","TLE_LINE2":"2 48389  53.0546 154.9326 0002029  51.2910 308.8260 15.06396588 56591","TIME_SYSTEM":"UTC","EPOCH":"2022-05-07T19:18:28.384416","PERIOD":"95.592","MEAN_MOTION_DOT":"0.00005456","ECCENTRICITY":"0.00020290","MEAN_ANOMALY":"308.8260","COUNTRY_CODE":"US","OBJECT_ID":"2021-038AN","FILE":"3434305","CENTER_NAME":"EARTH","BSTAR":"0.00038494000000","EPHEMERIS_TYPE":"0","SEMIMAJOR_AXIS":"6925.359","TLE_LINE1":"1 48389U 21038AN  22127.80449519  .00005456  00000-0  38494-3 0  9991","ARG_OF_PERICENTER":"51.2910","OBJECT_TYPE":"PAYLOAD","RCS_SIZE":"LARGE","REV_AT_EPOCH":"5659"},{"REV_AT_EPOCH":"5716","RCS_SIZE":"LARGE","OBJECT_TYPE":"PAYLOAD","ARG_OF_PERICENTER":"41.5226","TLE_LINE1":"1 48390U 21038AP  22127.40271576  .00000643  00000-0  62095-4 0  9993","SEMIMAJOR_AXIS":"6925.371","EPHEMERIS_TYPE":"0","BSTAR":"0.00006209500000","CENTER_NAME":"EARTH","OBJECT_ID":"2021-038AP","FILE":"3433971","COUNTRY_CODE":"US","MEAN_ANOMALY":"318.5918","ECCENTRICITY":"0.00020420","MEAN_MOTION_DOT":"0.00000643","PERIOD":"95.593","TIME_SYSTEM":"UTC","EPOCH":"2022-05-07T09:39:54.641664","TLE_LINE2":"2 48390  53.0536 156.7358 0002042  41.5226 318.5918 15.06392603 57160","MEAN_ELEMENT_THEORY":"SGP4","MEAN_MOTION_DDOT":"0.0000000000000","OBJECT_NAME":"STARLINK-2586","DECAY_DATE":null,"SITE":"AFETR","RA_OF_ASC_NODE":"156.7358","INCLINATION":"53.0536","GP_ID":"202926442","CLASSIFICATION_TYPE":"U","REF_FRAME":"TEME","NORAD_CAT_ID":"48390","ELEMENT_SET_NO":"999","APOAPSIS":"548.650","MEAN_MOTION":"15.06392603","LAUNCH_DATE":"2021-05-04","PERIAPSIS":"545.822"},{"SITE":"AFETR","MEAN_MOTION_DDOT":"0.0000000000000","MEAN_ELEMENT_THEORY":"SGP4","TLE_LINE2":"2 48391  53.0550 156.7562 0002185  34.6342 325.4789 15.06401614 57160","DECAY_DATE":null,"OBJECT_NAME":"STARLINK-2607","RA_OF_ASC_NODE":"156.7562","INCLINATION":"53.0550","ELEMENT_SET_NO":"999","NORAD_CAT_ID":"48391","GP_ID":"202925193","CLASSIFICATION_TYPE":"U","REF_FRAME":"TEME","PERIAPSIS":"545.695","APOAPSIS":"548.722","LAUNCH_DATE":"2021-05-04","MEAN_MOTION":"15.06401614","OBJECT_TYPE":"PAYLOAD","ARG_OF_PERICENTER":"34.6342","RCS_SIZE":"LARGE","REV_AT_EPOCH":"5716","SEMIMAJOR_AXIS":"6925.344","TLE_LINE1":"1 48391U 21038AQ  22127.39902311  .00000907  00000-0  79765-4 0  9995","BSTAR":"0.00007976500000","EPHEMERIS_TYPE":"0","MEAN_ANOMALY":"325.4789","ECCENTRICITY":"0.00021850","COUNTRY_CODE":"US","MEAN_MOTION_DOT":"0.00000907","OBJECT_ID":"2021-038AQ","FILE":"3433971","CENTER_NAME":"EARTH","TIME_SYSTEM":"UTC","EPOCH":"2022-05-07T09:34:35.596704","PERIOD":"95.592"},{"RA_OF_ASC_NODE":"156.7731","INCLINATION":"53.0555","TLE_LINE2":"2 48392  53.0555 156.7731 0002104  44.5454 315.5704 15.06402297 57164","MEAN_ELEMENT_THEORY":"SGP4","MEAN_MOTION_DDOT":"0.0000000000000","OBJECT_NAME":"STARLINK-2605","DECAY_DATE":null,"SITE":"AFETR","APOAPSIS":"548.664","MEAN_MOTION":"15.06402297","LAUNCH_DATE":"2021-05-04","PERIAPSIS":"545.749","GP_ID":"202925442","CLASSIFICATION_TYPE":"U","REF_FRAME":"TEME","NORAD_CAT_ID":"48392","ELEMENT_SET_NO":"999","TLE_LINE1":"1 48392U 21038AR  22127.39533052  .00000433  00000-0  47954-4 0  9997","SEMIMAJOR_AXIS":"6925.342","EPHEMERIS_TYPE":"0","BSTAR":"0.00004795400000","REV_AT_EPOCH":"5716","RCS_SIZE":"LARGE","OBJECT_TYPE":"PAYLOAD","ARG_OF_PERICENTER":"44.5454","PERIOD":"95.592","EPOCH":"2022-05-07T09:29:16.556928","TIME_SYSTEM":"UTC","CENTER_NAME":"EARTH","FILE":"3433971","OBJECT_ID":"2021-038AR","COUNTRY_CODE":"US","ECCENTRICITY":"0.00021040","MEAN_ANOMALY":"315.5704","MEAN_MOTION_DOT":"0.00000433"},{"EPHEMERIS_TYPE":"0","BSTAR":"0.00005074700000","TLE_LINE1":"1 48393U 21038AS  22127.39164765  .00000474  00000-0  50747-4 0  9998","SEMIMAJOR_AXIS":"6925.354","REV_AT_EPOCH":"5716","RCS_SIZE":"LARGE","ARG_OF_PERICENTER":"41.5071","OBJECT_TYPE":"PAYLOAD","PERIOD":"95.592","EPOCH":"2022-05-07T09:23:58.356960","TIME_SYSTEM":"UTC","CENTER_NAME":"EARTH","FILE":"3433971","OBJECT_ID":"2021-038AS","MEAN_MOTION_DOT":"0.00000474","COUNTRY_CODE":"US","ECCENTRICITY":"0.00019910","MEAN_ANOMALY":"318.6069","INCLINATION":"53.0541","RA_OF_ASC_NODE":"156.7923","OBJECT_NAME":"STARLINK-2602","DECAY_DATE":null,"TLE_LINE2":"2 48393  53.0541 156.7923 0001991  41.5071 318.6069 15.06398086 57166","MEAN_MOTION_DDOT":"0.0000000000000","MEAN_ELEMENT_THEORY":"SGP4","SITE":"AFETR","MEAN_MOTION":"15.06398086","LAUNCH_DATE":"2021-05-04","APOAPSIS":"548.598","PERIAPSIS":"545.841","CLASSIFICATION_TYPE":"U","REF_FRAME":"TEME","GP_ID":"202926194","NORAD_CAT_ID":"48393","ELEMENT_SET_NO":"999"}];
